start=new Date('2022-09-21T00:00:00.000Z').valueOf();
sats=[{"ELEMENT_SET_NO":"999","MEAN_MOTION":"15.08846141","FILE":"3578945","INCLINATION":"53.2201","RCS_SIZE":"LARGE","APOAPSIS":"541.073","MEAN_MOTION_DDOT":"0.0000000000000","TIME_SYSTEM":"UTC","EPOCH":"2022-09-20T14:49:19.368192","REV_AT_EPOCH":"2323","LAUNCH_DATE":"2022-04-21","EPHEMERIS_TYPE":"0","MEAN_ANOMALY":"299.9883","DECAY_DATE":null,"CLASSIFICATION_TYPE":"U","RA_OF_ASC_NODE":"32.7445","OBJECT_TYPE":"PAYLOAD","NORAD_CAT_ID":"52283","TLE_LINE2":"2 52283  53.2201  32.7445 0001946  60.1302 299.9883 15.08846141 23238","BSTAR":"0.00003721900000","MEAN_MOTION_DOT":"0.00000304","COUNTRY_CODE":"US","ECCENTRICITY":"0.00019460","PERIOD":"95.437","MEAN_ELEMENT_THEORY":"SGP4","SEMIMAJOR_AXIS":"6917.862","GP_ID":"213124671","PERIAPSIS":"538.380","SITE":"AFETR","REF_FRAME":"TEME","OBJECT_ID":"2022-041Y","TLE_LINE1":"1 52283U 22041Y   22263.61758528  .00000304  00000-0  37219-4 0  9999","OBJECT_NAME":"STARLINK-3789","ARG_OF_PERICENTER":"60.1302","CENTER_NAME":"EARTH"},{"RCS_SIZE":"LARGE","APOAPSIS":"540.991","MEAN_MOTION_DDOT":"0.0000000000000","EPOCH":"2022-09-20T14:18:51.798240","TIME_SYSTEM":"UTC","INCLINATION":"53.2180","FILE":"3578945","MEAN_MOTION":"15.08825992","ELEMENT_SET_NO":"999","BSTAR":"0.00007319800000","TLE_LINE2":"2 52284  53.2180  22.8254 0001738  50.5295 309.5851 15.08825992 23364","OBJECT_TYPE":"PAYLOAD","RA_OF_ASC_NODE":"22.8254","NORAD_CAT_ID":"52284","CLASSIFICATION_TYPE":"U","DECAY_DATE":null,"MEAN_ANOMALY":"309.5851","EPHEMERIS_TYPE":"0","LAUNCH_DATE":"2022-04-21","REV_AT_EPOCH":"2336","PERIAPSIS":"538.586","GP_ID":"213124922","SEMIMAJOR_AXIS":"6917.923","MEAN_ELEMENT_THEORY":"SGP4","PERIOD":"95.438","ECCENTRICITY":"0.00017380","COUNTRY_CODE":"US","MEAN_MOTION_DOT":"0.00000877","CENTER_NAME":"EARTH","OBJECT_NAME":"STARLINK-3561","ARG_OF_PERICENTER":"50.5295","OBJECT_ID":"2022-041Z","TLE_LINE1":"1 52284U 22041Z   22263.59643285  .00000877  00000-0  73198-4 0  9991","REF_FRAME":"TEME","SITE":"AFETR"},{"SITE":"AFETR","REF_FRAME":"TEME","CENTER_NAME":"EARTH","OBJECT_ID":"2022-041AA","TLE_LINE1":"1 52285U 22041AA  22263.74637447  .00002908  00000-0  20068-3 0  9996","OBJECT_NAME":"STARLINK-3775","ARG_OF_PERICENTER":"53.7445","COUNTRY_CODE":"US","ECCENTRICITY":"0.00017990","MEAN_MOTION_DOT":"0.00002908","PERIOD":"95.437","MEAN_ELEMENT_THEORY":"SGP4","SEMIMAJOR_AXIS":"6917.852","GP_ID":"213123671","PERIAPSIS":"538.473","REV_AT_EPOCH":"2325","LAUNCH_DATE":"2022-04-21","EPHEMERIS_TYPE":"0","CLASSIFICATION_TYPE":"U","NORAD_CAT_ID":"52285","OBJECT_TYPE":"PAYLOAD","RA_OF_ASC_NODE":"32.1709","MEAN_ANOMALY":"306.3714","DECAY_DATE":null,"BSTAR":"0.00020068000000","TLE_LINE2":"2 52285  53.2189  32.1709 0001799  53.7445 306.3714 15.08849204 23255","MEAN_MOTION":"15.08849204","FILE":"3578945","ELEMENT_SET_NO":"999","INCLINATION":"53.2189","RCS_SIZE":"LARGE","APOAPSIS":"540.962","TIME_SYSTEM":"UTC","MEAN_MOTION_DDOT":"0.0000000000000","EPOCH":"2022-09-20T17:54:46.754208"},{"SITE":"AFETR","REF_FRAME":"TEME","CENTER_NAME":"EARTH","TLE_LINE1":"1 52286U 22041AB  22263.58905923 -.00001881  00000-0 -10008-3 0  9990","OBJECT_ID":"2022-041AB","OBJECT_NAME":"STARLINK-3802","ARG_OF_PERICENTER":"68.6992","COUNTRY_CODE":"US","ECCENTRICITY":"0.00016600","MEAN_MOTION_DOT":"-0.00001881","PERIOD":"95.437","MEAN_ELEMENT_THEORY":"SGP4","SEMIMAJOR_AXIS":"6917.844","GP_ID":"213099127","PERIAPSIS":"538.561","REV_AT_EPOCH":"2458","LAUNCH_DATE":"2022-04-21","EPHEMERIS_TYPE":"0","CLASSIFICATION_TYPE":"U","OBJECT_TYPE":"PAYLOAD","NORAD_CAT_ID":"52286","RA_OF_ASC_NODE":"22.8550","MEAN_ANOMALY":"291.4177","DECAY_DATE":null,"BSTAR":"-0.00010008000000","TLE_LINE2":"2 52286  53.2170  22.8550 0001660  68.6992 291.4177 15.08851766 24585","MEAN_MOTION":"15.08851766","FILE":"3578853","ELEMENT_SET_NO":"999","INCLINATION":"53.2170","MEAN_MOTION_DDOT":"0.0000000000000","RCS_SIZE":"LARGE","APOAPSIS":"540.858","EPOCH":"2022-09-20T14:08:14.717472","TIME_SYSTEM":"UTC"},{"TLE_LINE2":"2 52287  53.2210  32.2029 0001625  72.6625 287.4545 15.08839024 23256","BSTAR":"0.00002536700000","MEAN_ANOMALY":"287.4545","DECAY_DATE":null,"CLASSIFICATION_TYPE":"U","OBJECT_TYPE":"PAYLOAD","RA_OF_ASC_NODE":"32.2029","NORAD_CAT_ID":"52287","REV_AT_EPOCH":"2325","LAUNCH_DATE":"2022-04-21","EPHEMERIS_TYPE":"0","RCS_SIZE":"LARGE","APOAPSIS":"540.873","MEAN_MOTION_DDOT":"0.0000000000000","TIME_SYSTEM":"UTC","EPOCH":"2022-09-20T17:44:11.592384","INCLINATION":"53.2210","ELEMENT_SET_NO":"999","MEAN_MOTION":"15.08839024","FILE":"3578945","OBJECT_ID":"2022-041AC","TLE_LINE1":"1 52287U 22041AC  22263.73902306  .00000116  00000-0  25367-4 0  9993","ARG_OF_PERICENTER":"72.6625","OBJECT_NAME":"STARLINK-3822","CENTER_NAME":"EARTH","REF_FRAME":"TEME","SITE":"AFETR","PERIAPSIS":"538.624","GP_ID":"213125171","PERIOD":"95.438","MEAN_ELEMENT_THEORY":"SGP4","SEMIMAJOR_AXIS":"6917.883","MEAN_MOTION_DOT":"0.00000116","COUNTRY_CODE":"US","ECCENTRICITY":"0.00016250"},{"APOAPSIS":"540.743","RCS_SIZE":"LARGE","TIME_SYSTEM":"UTC","MEAN_MOTION_DDOT":"0.0000000000000","EPOCH":"2022-09-20T10:52:10.566912","MEAN_MOTION":"15.08847142","FILE":"3578736","ELEMENT_SET_NO":"999","INCLINATION":"53.2194","CLASSIFICATION_TYPE":"U","NORAD_CAT_ID":"52288","OBJECT_TYPE":"PAYLOAD","RA_OF_ASC_NODE":"23.4736","MEAN_ANOMALY":"307.5001","DECAY_DATE":null,"BSTAR":"0.00002432300000","TLE_LINE2":"2 52288  53.2194  23.4736 0001474  52.6125 307.5001 15.08847142 23341","REV_AT_EPOCH":"2334","LAUNCH_DATE":"2022-04-21","EPHEMERIS_TYPE":"0","GP_ID":"213072933","PERIAPSIS":"538.704","COUNTRY_CODE":"US","ECCENTRICITY":"0.00014740","MEAN_MOTION_DOT":"0.00000099","PERIOD":"95.437","SEMIMAJOR_AXIS":"6917.859","MEAN_ELEMENT_THEORY":"SGP4","REF_FRAME":"TEME","CENTER_NAME":"EARTH","OBJECT_ID":"2022-041AD","TLE_LINE1":"1 52288U 22041AD  22263.45290008  .00000099  00000-0  24323-4 0  9993","ARG_OF_PERICENTER":"52.6125","OBJECT_NAME":"STARLINK-3776","SITE":"AFETR"},{"COUNTRY_CODE":"US","ECCENTRICITY":"0.00015850","MEAN_MOTION_DOT":"-0.00000791","PERIOD":"95.437","MEAN_ELEMENT_THEORY":"SGP4","SEMIMAJOR_AXIS":"6917.871","GP_ID":"213124171","PERIAPSIS":"538.640","SITE":"AFETR","REF_FRAME":"TEME","CENTER_NAME":"EARTH","TLE_LINE1":"1 52289U 22041AE  22263.79882503 -.00000791  00000-0 -31575-4 0  9996","OBJECT_ID":"2022-041AE","OBJECT_NAME":"STARLINK-3751","ARG_OF_PERICENTER":"61.0790","MEAN_MOTION":"15.08843070","FILE":"3578945","ELEMENT_SET_NO":"999","INCLINATION":"53.2185","RCS_SIZE":"LARGE","MEAN_MOTION_DDOT":"0.0000000000000","APOAPSIS":"540.832","EPOCH":"2022-09-20T19:10:18.482592","TIME_SYSTEM":"UTC","REV_AT_EPOCH":"2339","LAUNCH_DATE":"2022-04-21","EPHEMERIS_TYPE":"0","CLASSIFICATION_TYPE":"U","OBJECT_TYPE":"PAYLOAD","NORAD_CAT_ID":"52289","RA_OF_ASC_NODE":"21.9203","MEAN_ANOMALY":"299.0361","DECAY_DATE":null,"BSTAR":"-0.00003157500000","TLE_LINE2":"2 52289  53.2185  21.9203 0001585  61.0790 299.0361 15.08843070 23394"},{"PERIAPSIS":"538.673","GP_ID":"213073421","PERIOD":"95.438","SEMIMAJOR_AXIS":"6917.887","MEAN_ELEMENT_THEORY":"SGP4","MEAN_MOTION_DOT":"-0.00001551","COUNTRY_CODE":"US","ECCENTRICITY":"0.00015590","TLE_LINE1":"1 52290U 22041AF  22263.37658678 -.00001551  00000-0 -79392-4 0  9990","OBJECT_ID":"2022-041AF","OBJECT_NAME":"STARLINK-3772","ARG_OF_PERICENTER":"54.9683","CENTER_NAME":"EARTH","REF_FRAME":"TEME","SITE":"AFETR","RCS_SIZE":"LARGE","EPOCH":"2022-09-20T09:02:17.097792","APOAPSIS":"540.830","MEAN_MOTION_DDOT":"0.0000000000000","TIME_SYSTEM":"UTC","INCLINATION":"53.2196","ELEMENT_SET_NO":"999","MEAN_MOTION":"15.08837948","FILE":"3578736","TLE_LINE2":"2 52290  53.2196  23.8162 0001559  54.9683 305.1455 15.08837948 23330","BSTAR":"-0.00007939200000","MEAN_ANOMALY":"305.1455","DECAY_DATE":null,"CLASSIFICATION_TYPE":"U","NORAD_CAT_ID":"52290","OBJECT_TYPE":"PAYLOAD","RA_OF_ASC_NODE":"23.8162","REV_AT_EPOCH":"2333","EPHEMERIS_TYPE":"0","LAUNCH_DATE":"2022-04-21"},{"RCS_SIZE":"LARGE","TIME_SYSTEM":"UTC","APOAPSIS":"541.105","MEAN_MOTION_DDOT":"0.0000000000000","EPOCH":"2022-09-20T15:48:56.551968","INCLINATION":"53.2186","FILE":"3578945","MEAN_MOTION":"15.08833897","ELEMENT_SET_NO":"999","BSTAR":"0.00000669060000","TLE_LINE2":"2 52291  53.2186  22.5458 0001938  48.7053 311.4106 15.08833897 23373","NORAD_CAT_ID":"52291","OBJECT_TYPE":"PAYLOAD","RA_OF_ASC_NODE":"22.5458","CLASSIFICATION_TYPE":"U","DECAY_DATE":null,"MEAN_ANOMALY":"311.4106","EPHEMERIS_TYPE":"0","LAUNCH_DATE":"2022-04-21","REV_AT_EPOCH":"2337","PERIAPSIS":"538.423","GP_ID":"213124672","SEMIMAJOR_AXIS":"6917.899","MEAN_ELEMENT_THEORY":"SGP4","PERIOD":"95.438","ECCENTRICITY":"0.00019380","COUNTRY_CODE":"US","MEAN_MOTION_DOT":"-0.00000182","CENTER_NAME":"EARTH","OBJECT_NAME":"STARLINK-3773","ARG_OF_PERICENTER":"48.7053","TLE_LINE1":"1 52291U 22041AG  22263.65898787 -.00000182  00000-0  66906-5 0  9995","OBJECT_ID":"2022-041AG","REF_FRAME":"TEME","SITE":"AFETR"},{"MEAN_ANOMALY":"312.9173","DECAY_DATE":null,"CLASSIFICATION_TYPE":"U","RA_OF_ASC_NODE":"22.3437","OBJECT_TYPE":"PAYLOAD","NORAD_CAT_ID":"52292","TLE_LINE2":"2 52292  53.2203  22.3437 0001128  47.1913 312.9173 15.08840389 23383","BSTAR":"0.00002395800000","REV_AT_EPOCH":"2338","LAUNCH_DATE":"2022-04-21","EPHEMERIS_TYPE":"0","MEAN_MOTION_DDOT":"0.0000000000000","RCS_SIZE":"MEDIUM","APOAPSIS":"540.525","EPOCH":"2022-09-20T16:52:31.294272","TIME_SYSTEM":"UTC","ELEMENT_SET_NO":"999","MEAN_MOTION":"15.08840389","FILE":"3578945","INCLINATION":"53.2203","REF_FRAME":"TEME","TLE_LINE1":"1 52292U 22041AH  22263.70313998  .00000094  00000-0  23958-4 0  9998","OBJECT_ID":"2022-041AH","ARG_OF_PERICENTER":"47.1913","OBJECT_NAME":"STARLINK-3753","CENTER_NAME":"EARTH","SITE":"AFETR","GP_ID":"213124923","PERIAPSIS":"538.964","MEAN_MOTION_DOT":"0.00000094","COUNTRY_CODE":"US","ECCENTRICITY":"0.00011280","PERIOD":"95.438","SEMIMAJOR_AXIS":"6917.879","MEAN_ELEMENT_THEORY":"SGP4"}];
